start=new Date('2022-01-07T00:00:00.000Z').valueOf();
sats=[{"GP_ID":"193351931","MEAN_MOTION_DOT":"-0.00000041","MEAN_ANOMALY":"253.5682","PERIAPSIS":"546.407","OBJECT_NAME":"STARLINK-1375","FILE":"3265870","APOAPSIS":"548.041","MEAN_MOTION_DDOT":"0.0000000000000","TLE_LINE2":"2 45546  53.0538 103.7253 0001180 106.5437 253.5682 15.06396513 95539","TLE_LINE1":"1 45546U 20025R   22006.66745836 -.00000041  00000-0  16159-4 0  9990","LAUNCH_DATE":"2020-04-22","OBJECT_TYPE":"PAYLOAD","ECCENTRICITY":"0.00011800","MEAN_MOTION":"15.06396513","COUNTRY_CODE":"US","SEMIMAJOR_AXIS":"6925.359","REF_FRAME":"TEME","PERIOD":"95.592","TIME_SYSTEM":"UTC","CLASSIFICATION_TYPE":"U","REV_AT_EPOCH":"9553","RCS_SIZE":"LARGE","RA_OF_ASC_NODE":"103.7253","BSTAR":"0.00001615900000","EPOCH":"2022-01-06T16:01:08.402304","NORAD_CAT_ID":"45546","ARG_OF_PERICENTER":"106.5437","OBJECT_ID":"2020-025R","SITE":"AFETR","CENTER_NAME":"EARTH","ELEMENT_SET_NO":"999","EPHEMERIS_TYPE":"0","MEAN_ELEMENT_THEORY":"SGP4","INCLINATION":"53.0538","DECAY_DATE":null},{"TLE_LINE2":"2 45547  53.0537 103.4410 0001371  97.5883 262.5262 15.06389754 95552","TLE_LINE1":"1 45547U 20025S   22006.73012833 -.00000193  00000-0  59535-5 0  9997","LAUNCH_DATE":"2020-04-22","MEAN_MOTION_DOT":"-0.00000193","GP_ID":"193352181","OBJECT_NAME":"STARLINK-1377","PERIAPSIS":"546.295","MEAN_ANOMALY":"262.5262","MEAN_MOTION_DDOT":"0.0000000000000","FILE":"3265870","APOAPSIS":"548.194","OBJECT_ID":"2020-025S","EPHEMERIS_TYPE":"0","ELEMENT_SET_NO":"999","SITE":"AFETR","CENTER_NAME":"EARTH","DECAY_DATE":null,"INCLINATION":"53.0537","MEAN_ELEMENT_THEORY":"SGP4","REF_FRAME":"TEME","SEMIMAJOR_AXIS":"6925.380","COUNTRY_CODE":"US","MEAN_MOTION":"15.06389754","ECCENTRICITY":"0.00013710","OBJECT_TYPE":"PAYLOAD","CLASSIFICATION_TYPE":"U","TIME_SYSTEM":"UTC","PERIOD":"95.593","RCS_SIZE":"LARGE","REV_AT_EPOCH":"9555","ARG_OF_PERICENTER":"97.5883","NORAD_CAT_ID":"45547","EPOCH":"2022-01-06T17:31:23.087712","BSTAR":"0.00000595350000","RA_OF_ASC_NODE":"103.4410"},{"DECAY_DATE":null,"INCLINATION":"53.0550","MEAN_ELEMENT_THEORY":"SGP4","EPHEMERIS_TYPE":"0","SITE":"AFETR","CENTER_NAME":"EARTH","ELEMENT_SET_NO":"999","OBJECT_ID":"2020-025T","ARG_OF_PERICENTER":"86.2867","NORAD_CAT_ID":"45548","EPOCH":"2022-01-06T18:08:32.123040","RA_OF_ASC_NODE":"103.3404","BSTAR":"-0.00001735100000","RCS_SIZE":"LARGE","REV_AT_EPOCH":"9554","CLASSIFICATION_TYPE":"U","TIME_SYSTEM":"UTC","PERIOD":"95.593","SEMIMAJOR_AXIS":"6925.377","REF_FRAME":"TEME","MEAN_MOTION":"15.06390879","COUNTRY_CODE":"US","ECCENTRICITY":"0.00011450","OBJECT_TYPE":"PAYLOAD","LAUNCH_DATE":"2020-04-22","TLE_LINE1":"1 45548U 20025T   22006.75592735 -.00000540  00000-0 -17351-4 0  9990","TLE_LINE2":"2 45548  53.0550 103.3404 0001145  86.2867 273.8253 15.06390879 95540","MEAN_MOTION_DDOT":"0.0000000000000","FILE":"3265870","APOAPSIS":"548.034","OBJECT_NAME":"STARLINK-1378","PERIAPSIS":"546.449","MEAN_ANOMALY":"273.8253","MEAN_MOTION_DOT":"-0.00000540","GP_ID":"193352432"},{"EPOCH":"2022-01-06T11:07:57.714816","BSTAR":"0.00020581000000","RA_OF_ASC_NODE":"84.3325","ARG_OF_PERICENTER":"12.5843","NORAD_CAT_ID":"45549","REV_AT_EPOCH":"9578","RCS_SIZE":"LARGE","TIME_SYSTEM":"UTC","PERIOD":"90.511","CLASSIFICATION_TYPE":"U","ECCENTRICITY":"0.00035280","OBJECT_TYPE":"PAYLOAD","SEMIMAJOR_AXIS":"6677.695","REF_FRAME":"TEME","MEAN_MOTION":"15.90973468","COUNTRY_CODE":"US","INCLINATION":"53.0508","MEAN_ELEMENT_THEORY":"SGP4","DECAY_DATE":null,"CENTER_NAME":"EARTH","SITE":"AFETR","ELEMENT_SET_NO":"999","EPHEMERIS_TYPE":"0","OBJECT_ID":"2020-025U","APOAPSIS":"301.915","FILE":"3265629","MEAN_MOTION_DDOT":"0.0000125940000","PERIAPSIS":"297.204","MEAN_ANOMALY":"347.5270","OBJECT_NAME":"STARLINK-1379","MEAN_MOTION_DOT":"0.00062936","GP_ID":"193322030","LAUNCH_DATE":"2020-04-22","TLE_LINE1":"1 45549U 20025U   22006.46386244  .00062936  12594-4  20581-3 0  9993","TLE_LINE2":"2 45549  53.0508  84.3325 0003528  12.5843 347.5270 15.90973468 95785"},{"FILE":"3265870","APOAPSIS":"548.142","MEAN_MOTION_DDOT":"0.0000000000000","MEAN_MOTION_DOT":"0.00000368","GP_ID":"193351431","MEAN_ANOMALY":"257.8493","PERIAPSIS":"546.314","OBJECT_NAME":"STARLINK-1390","LAUNCH_DATE":"2020-04-22","TLE_LINE2":"2 45550  53.0550 103.8600 0001320 102.2643 257.8493 15.06395177 95524","TLE_LINE1":"1 45550U 20025V   22006.64071611  .00000368  00000-0  43602-4 0  9990","REV_AT_EPOCH":"9552","RCS_SIZE":"LARGE","EPOCH":"2022-01-06T15:22:37.871904","BSTAR":"0.00004360200000","RA_OF_ASC_NODE":"103.8600","ARG_OF_PERICENTER":"102.2643","NORAD_CAT_ID":"45550","ECCENTRICITY":"0.00013200","OBJECT_TYPE":"PAYLOAD","REF_FRAME":"TEME","SEMIMAJOR_AXIS":"6925.363","COUNTRY_CODE":"US","MEAN_MOTION":"15.06395177","TIME_SYSTEM":"UTC","PERIOD":"95.592","CLASSIFICATION_TYPE":"U","SITE":"AFETR","CENTER_NAME":"EARTH","ELEMENT_SET_NO":"999","EPHEMERIS_TYPE":"0","INCLINATION":"53.0550","MEAN_ELEMENT_THEORY":"SGP4","DECAY_DATE":null,"OBJECT_ID":"2020-025V"},{"SITE":"AFETR","ELEMENT_SET_NO":"999","CENTER_NAME":"EARTH","EPHEMERIS_TYPE":"0","INCLINATION":"53.0544","MEAN_ELEMENT_THEORY":"SGP4","DECAY_DATE":null,"OBJECT_ID":"2020-025W","REV_AT_EPOCH":"9581","RCS_SIZE":"LARGE","EPOCH":"2022-01-06T15:26:39.151680","RA_OF_ASC_NODE":"83.8440","BSTAR":"0.00000933940000","ARG_OF_PERICENTER":"89.4795","NORAD_CAT_ID":"45551","ECCENTRICITY":"0.00013080","OBJECT_TYPE":"PAYLOAD","REF_FRAME":"TEME","SEMIMAJOR_AXIS":"6925.394","COUNTRY_CODE":"US","MEAN_MOTION":"15.06385235","TIME_SYSTEM":"UTC","PERIOD":"95.593","CLASSIFICATION_TYPE":"U","LAUNCH_DATE":"2020-04-22","TLE_LINE2":"2 45551  53.0544  83.8440 0001308  89.4795 270.6343 15.06385235 95810","TLE_LINE1":"1 45551U 20025W   22006.64350870 -.00000142  00000-0  93394-5 0  9993","APOAPSIS":"548.165","FILE":"3265870","MEAN_MOTION_DDOT":"0.0000000000000","MEAN_MOTION_DOT":"-0.00000142","GP_ID":"193351681","MEAN_ANOMALY":"270.6343","PERIAPSIS":"546.353","OBJECT_NAME":"STARLINK-1294"},{"TLE_LINE1":"1 45552U 20025X   22006.47050850  .00021436  00000-0  48572-3 0  9994","TLE_LINE2":"2 45552  53.0562  63.1454 0002285  47.4721 312.6476 15.43066330 96082","LAUNCH_DATE":"2020-04-22","MEAN_ANOMALY":"312.6476","PERIAPSIS":"435.510","OBJECT_NAME":"STARLINK-1322","MEAN_MOTION_DOT":"0.00021436","GP_ID":"193321280","FILE":"3265629","APOAPSIS":"438.625","MEAN_MOTION_DDOT":"0.0000000000000","OBJECT_ID":"2020-025X","INCLINATION":"53.0562","MEAN_ELEMENT_THEORY":"SGP4","DECAY_DATE":null,"SITE":"AFETR","CENTER_NAME":"EARTH","ELEMENT_SET_NO":"999","EPHEMERIS_TYPE":"0","TIME_SYSTEM":"UTC","PERIOD":"93.321","CLASSIFICATION_TYPE":"U","ECCENTRICITY":"0.00022850","OBJECT_TYPE":"PAYLOAD","REF_FRAME":"TEME","SEMIMAJOR_AXIS":"6815.203","COUNTRY_CODE":"US","MEAN_MOTION":"15.43066330","EPOCH":"2022-01-06T11:17:31.934400","BSTAR":"0.00048572000000","RA_OF_ASC_NODE":"63.1454","ARG_OF_PERICENTER":"47.4721","NORAD_CAT_ID":"45552","REV_AT_EPOCH":"9608","RCS_SIZE":"LARGE"},{"LAUNCH_DATE":"2020-04-22","TLE_LINE2":"2 45553  53.0557  83.5025 0001219  74.7864 285.3260 15.06385224 94534","TLE_LINE1":"1 45553U 20025Y   22006.72091602 -.00000109  00000-0  11554-4 0  9999","MEAN_MOTION_DDOT":"0.0000000000000","APOAPSIS":"548.103","FILE":"3265870","MEAN_MOTION_DOT":"-0.00000109","GP_ID":"193352683","OBJECT_NAME":"STARLINK-1323","PERIAPSIS":"546.415","MEAN_ANOMALY":"285.3260","EPHEMERIS_TYPE":"0","SITE":"AFETR","ELEMENT_SET_NO":"999","CENTER_NAME":"EARTH","DECAY_DATE":null,"INCLINATION":"53.0557","MEAN_ELEMENT_THEORY":"SGP4","OBJECT_ID":"2020-025Y","RCS_SIZE":"LARGE","REV_AT_EPOCH":"9453","ARG_OF_PERICENTER":"74.7864","NORAD_CAT_ID":"45553","EPOCH":"2022-01-06T17:18:07.144128","BSTAR":"0.00001155400000","RA_OF_ASC_NODE":"83.5025","REF_FRAME":"TEME","SEMIMAJOR_AXIS":"6925.394","COUNTRY_CODE":"US","MEAN_MOTION":"15.06385224","ECCENTRICITY":"0.00012190","OBJECT_TYPE":"PAYLOAD","CLASSIFICATION_TYPE":"U","TIME_SYSTEM":"UTC","PERIOD":"95.593"},{"OBJECT_NAME":"STARLINK-1325","MEAN_ANOMALY":"273.4538","PERIAPSIS":"546.409","GP_ID":"193322280","MEAN_MOTION_DOT":"-0.00000035","MEAN_MOTION_DDOT":"0.0000000000000","APOAPSIS":"548.092","FILE":"3265629","TLE_LINE1":"1 45554U 20025Z   22006.58084981 -.00000035  00000-0  16531-4 0  9994","TLE_LINE2":"2 45554  53.0540  84.1230 0001215  86.6590 273.4538 15.06387991 95806","LAUNCH_DATE":"2020-04-22","CLASSIFICATION_TYPE":"U","PERIOD":"95.593","TIME_SYSTEM":"UTC","MEAN_MOTION":"15.06387991","COUNTRY_CODE":"US","SEMIMAJOR_AXIS":"6925.385","REF_FRAME":"TEME","OBJECT_TYPE":"PAYLOAD","ECCENTRICITY":"0.00012150","NORAD_CAT_ID":"45554","ARG_OF_PERICENTER":"86.6590","RA_OF_ASC_NODE":"84.1230","BSTAR":"0.00001653100000","EPOCH":"2022-01-06T13:56:25.423584","RCS_SIZE":"LARGE","REV_AT_EPOCH":"9580","OBJECT_ID":"2020-025Z","DECAY_DATE":null,"MEAN_ELEMENT_THEORY":"SGP4","INCLINATION":"53.0540","EPHEMERIS_TYPE":"0","ELEMENT_SET_NO":"999","SITE":"AFETR","CENTER_NAME":"EARTH"},{"EPHEMERIS_TYPE":"0","SITE":"AFETR","ELEMENT_SET_NO":"999","CENTER_NAME":"EARTH","DECAY_DATE":null,"INCLINATION":"53.0532","MEAN_ELEMENT_THEORY":"SGP4","OBJECT_ID":"2020-025AA","RCS_SIZE":"LARGE","REV_AT_EPOCH":"9581","ARG_OF_PERICENTER":"96.0824","NORAD_CAT_ID":"45555","EPOCH":"2022-01-06T16:14:25.166688","RA_OF_ASC_NODE":"83.6927","BSTAR":"0.00000775920000","REF_FRAME":"TEME","SEMIMAJOR_AXIS":"6925.372","MEAN_MOTION":"15.06392321","COUNTRY_CODE":"US","ECCENTRICITY":"0.00012340","OBJECT_TYPE":"PAYLOAD","CLASSIFICATION_TYPE":"U","TIME_SYSTEM":"UTC","PERIOD":"95.593","LAUNCH_DATE":"2020-04-22","TLE_LINE2":"2 45555  53.0532  83.6927 0001234  96.0824 264.0306 15.06392321 95814","TLE_LINE1":"1 45555U 20025AA  22006.67668017 -.00000166  00000-0  77592-5 0  9993","MEAN_MOTION_DDOT":"0.0000000000000","FILE":"3265870","APOAPSIS":"548.092","MEAN_MOTION_DOT":"-0.00000166","GP_ID":"193352182","OBJECT_NAME":"STARLINK-1327","MEAN_ANOMALY":"264.0306","PERIAPSIS":"546.383"}];
